STARLINK-2022           
1 47643U 21012Z   24019.84451914  .00021859  00000+0  14811-2 0  9993
2 47643  53.0554 312.4824 0001132 114.3674 245.7434 15.06418276162205
